[{"OBJECT_NAME":"TIANMU-1 19","OBJECT_ID":"2023-208A","EPOCH":"2026-03-09T22:13:36.801696","MEAN_MOTION":15.2984143,"ECCENTRICITY":0.00039292,"INCLINATION":97.4383,"RA_OF_ASC_NODE":184.9132,"ARG_OF_PERICENTER":316.2611,"MEAN_ANOMALY":43.8317,"EPHEMERIS_TYPE":0,"CLASSIFICATION_TYPE":"U","NORAD_CAT_ID":58660,"ELEMENT_SET_NO":999,"REV_AT_EPOCH":12214,"BSTAR":0.00040995676,"MEAN_MOTION_DOT":0.00011779,"MEAN_MOTION_DDOT":0},{"OBJECT_NAME":"STARLINK-32015","OBJECT_ID":"2024-117W","EPOCH":"2026-03-09T21:38:33.752256","MEAN_MOTION":15.30198051,"ECCENTRICITY":0.00012414,"INCLINATION":53.1607,"RA_OF_ASC_NODE":35.7983,"ARG_OF_PERICENTER":90.3091,"MEAN_ANOMALY":269.8052,"EPHEMERIS_TYPE":0,"CLASSIFICATION_TYPE":"U","NORAD_CAT_ID":60111,"ELEMENT_SET_NO":999,"REV_AT_EPOCH":9692,"BSTAR":4.6290634e-5,"MEAN_MOTION_DOT":1.012e-5,"MEAN_MOTION_DDOT":0}]
